[{"OBJECT_NAME":"OBJECT L","OBJECT_ID":"2023-085L","EPOCH":"2026-03-09T23:02:21.999840","MEAN_MOTION":15.29079976,"ECCENTRICITY":0.0005428,"INCLINATION":97.486,"RA_OF_ASC_NODE":178.8598,"ARG_OF_PERICENTER":50.8528,"MEAN_ANOMALY":309.3193,"EPHEMERIS_TYPE":0,"CLASSIFICATION_TYPE":"U","NORAD_CAT_ID":57014,"ELEMENT_SET_NO":999,"REV_AT_EPOCH":15144,"BSTAR":0.00063462603,"MEAN_MOTION_DOT":0.00017871,"MEAN_MOTION_DDOT":0},{"OBJECT_NAME":"STARLINK-32648","OBJECT_ID":"2024-239A","EPOCH":"2026-03-09T13:47:36.605472","MEAN_MOTION":15.3019647,"ECCENTRICITY":0.0002139,"INCLINATION":53.1601,"RA_OF_ASC_NODE":181.8633,"ARG_OF_PERICENTER":27.6756,"MEAN_ANOMALY":332.4358,"EPHEMERIS_TYPE":0,"CLASSIFICATION_TYPE":"U","NORAD_CAT_ID":62301,"ELEMENT_SET_NO":999,"REV_AT_EPOCH":6954,"BSTAR":0.0011225,"MEAN_MOTION_DOT":0.0003303,"MEAN_MOTION_DDOT":0}]
